STARLINK-31102          
1 58715U 24002L   26003.77357929  .00003835  00000+0  14156-3 0  9992
2 58715  53.1611 171.6575 0001247  72.8074 287.3063 15.30194233112070
STARLINK-31098          
1 58716U 24002M   26003.75139967  .00001915  00000+0  76747-4 0  9993
2 58716  53.1603 171.5202 0001560  97.0466 263.0713 15.30210545112078
STARLINK-31093          
1 58717U 24002N   26003.88943759  .00002817  00000+0  10721-3 0  9991
2 58717  53.1580 170.9725 0000995  99.6111 260.5002 15.30196073112096
STARLINK-31097          
1 58718U 24002P   26003.88626838  .00000412  00000+0  26038-4 0  9996
2 58718  53.1596 170.9383 0001032  68.0881 292.0229 15.30198779112097
STARLINK-31051          
1 58719U 24002Q   26003.76091907  .00001012  00000+0  46298-4 0  9994
2 58719  53.1599 171.5762 0001443  67.2126 292.9027 15.30186129112077
STARLINK-31027          
1 58720U 24002R   26003.65048187  .00020830  00000+0  69236-3 0  9991
2 58720  53.1589 171.6075 0001190  61.3796 298.7325 15.31172433112061
STARLINK-30972          
1 58721U 24002S   26003.87782478  .00000733  00000+0  36858-4 0  9999
2 58721  53.1604 170.8822 0001038  65.7968 294.3142 15.30198985112092
STARLINK-31040          
1 58722U 24002T   26003.76408514 -.00000382  00000+0 -77465-6 0  9997
2 58722  53.1603 171.5945 0001079  83.9245 276.1879 15.30192216112075
STARLINK-31033          
1 58723U 24002U   26003.75458649  .00000961  00000+0  44557-4 0  9996
2 58723  53.1603 171.5332 0000969  85.2191 274.8920 15.30191876112071
STARLINK-30893          
1 58724U 24002V   26003.77674675 -.00001653  00000+0 -43684-4 0  9999
2 58724  53.1595 171.6809 0001148 113.8515 246.2607 15.30198130112064
STARLINK-30856          
1 58725U 24002W   26003.75037567 -.00005659  00000+0 -17926-3 0  9990
2 58725  53.1592 171.5069 0001091  93.4606 266.6520 15.30166535112075
STARLINK-31115          
1 58729U 24005B   26004.25582311 -.00000364  00000+0 -11893-4 0  9991
2 58729  43.0031 211.3447 0001068 274.1910  85.8810 15.02533730110725
STARLINK-31180          
1 58732U 24005E   26003.95007023  .00001309  00000+0  11193-3 0  9993
2 58732  43.0028 213.3618 0001108 264.6450  95.4266 15.02537231110671
STARLINK-31164          
1 58733U 24005F   26004.25260800  .00000512  00000+0  52933-4 0  9995
2 58733  43.0025 212.1813 0001062 262.4626  97.6096 15.02536606110718
STARLINK-31152          
1 58734U 24005G   26003.98336740  .00000806  00000+0  74763-4 0  9993
2 58734  43.0019 213.6026 0001172 272.9577  87.1131 15.02531090110689
STARLINK-31157          
1 58735U 24005H   26003.98003424  .00000497  00000+0  51851-4 0  9993
2 58735  43.0035 213.5720 0001580 254.0103 106.0566 15.02537747110685
