[{"OBJECT_NAME":"STARLINK-31102","OBJECT_ID":"2024-002L","EPOCH":"2026-01-03T18:33:57.250656","MEAN_MOTION":15.30194233,"ECCENTRICITY":0.00012477,"INCLINATION":53.1611,"RA_OF_ASC_NODE":171.6575,"ARG_OF_PERICENTER":72.8074,"MEAN_ANOMALY":287.3063,"EPHEMERIS_TYPE":0,"CLASSIFICATION_TYPE":"U","NORAD_CAT_ID":58715,"ELEMENT_SET_NO":999,"REV_AT_EPOCH":11207,"BSTAR":0.00014155877,"MEAN_MOTION_DOT":3.835e-5,"MEAN_MOTION_DDOT":0},{"OBJECT_NAME":"STARLINK-31098","OBJECT_ID":"2024-002M","EPOCH":"2026-01-03T18:02:00.931488","MEAN_MOTION":15.30210545,"ECCENTRICITY":0.00015604,"INCLINATION":53.1603,"RA_OF_ASC_NODE":171.5202,"ARG_OF_PERICENTER":97.0466,"MEAN_ANOMALY":263.0713,"EPHEMERIS_TYPE":0,"CLASSIFICATION_TYPE":"U","NORAD_CAT_ID":58716,"ELEMENT_SET_NO":999,"REV_AT_EPOCH":11207,"BSTAR":7.6747058e-5,"MEAN_MOTION_DOT":1.915e-5,"MEAN_MOTION_DDOT":0},{"OBJECT_NAME":"STARLINK-31093","OBJECT_ID":"2024-002N","EPOCH":"2026-01-03T21:20:47.407776","MEAN_MOTION":15.30196073,"ECCENTRICITY":9.95e-5,"INCLINATION":53.158,"RA_OF_ASC_NODE":170.9725,"ARG_OF_PERICENTER":99.6111,"MEAN_ANOMALY":260.5002,"EPHEMERIS_TYPE":0,"CLASSIFICATION_TYPE":"U","NORAD_CAT_ID":58717,"ELEMENT_SET_NO":999,"REV_AT_EPOCH":11209,"BSTAR":0.00010721,"MEAN_MOTION_DOT":2.817e-5,"MEAN_MOTION_DDOT":0},{"OBJECT_NAME":"STARLINK-31097","OBJECT_ID":"2024-002P","EPOCH":"2026-01-03T21:16:13.588032","MEAN_MOTION":15.30198779,"ECCENTRICITY":0.0001032,"INCLINATION":53.1596,"RA_OF_ASC_NODE":170.9383,"ARG_OF_PERICENTER":68.0881,"MEAN_ANOMALY":292.0229,"EPHEMERIS_TYPE":0,"CLASSIFICATION_TYPE":"U","NORAD_CAT_ID":58718,"ELEMENT_SET_NO":999,"REV_AT_EPOCH":11209,"BSTAR":2.6038e-5,"MEAN_MOTION_DOT":4.12e-6,"MEAN_MOTION_DDOT":0},{"OBJECT_NAME":"STARLINK-31051","OBJECT_ID":"2024-002Q","EPOCH":"2026-01-03T18:15:43.407648","MEAN_MOTION":15.30186129,"ECCENTRICITY":0.00014433,"INCLINATION":53.1599,"RA_OF_ASC_NODE":171.5762,"ARG_OF_PERICENTER":67.2126,"MEAN_ANOMALY":292.9027,"EPHEMERIS_TYPE":0,"CLASSIFICATION_TYPE":"U","NORAD_CAT_ID":58719,"ELEMENT_SET_NO":999,"REV_AT_EPOCH":11207,"BSTAR":4.6297605e-5,"MEAN_MOTION_DOT":1.012e-5,"MEAN_MOTION_DDOT":0},{"OBJECT_NAME":"STARLINK-31027","OBJECT_ID":"2024-002R","EPOCH":"2026-01-03T15:36:41.633568","MEAN_MOTION":15.31172433,"ECCENTRICITY":0.00011904,"INCLINATION":53.1589,"RA_OF_ASC_NODE":171.6075,"ARG_OF_PERICENTER":61.3796,"MEAN_ANOMALY":298.7325,"EPHEMERIS_TYPE":0,"CLASSIFICATION_TYPE":"U","NORAD_CAT_ID":58720,"ELEMENT_SET_NO":999,"REV_AT_EPOCH":11206,"BSTAR":0.00069236321,"MEAN_MOTION_DOT":0.0002083,"MEAN_MOTION_DDOT":0},{"OBJECT_NAME":"STARLINK-30972","OBJECT_ID":"2024-002S","EPOCH":"2026-01-03T21:04:04.060992","MEAN_MOTION":15.30198985,"ECCENTRICITY":0.0001038,"INCLINATION":53.1604,"RA_OF_ASC_NODE":170.8822,"ARG_OF_PERICENTER":65.7968,"MEAN_ANOMALY":294.3142,"EPHEMERIS_TYPE":0,"CLASSIFICATION_TYPE":"U","NORAD_CAT_ID":58721,"ELEMENT_SET_NO":999,"REV_AT_EPOCH":11209,"BSTAR":3.6858e-5,"MEAN_MOTION_DOT":7.33e-6,"MEAN_MOTION_DDOT":0},{"OBJECT_NAME":"STARLINK-31040","OBJECT_ID":"2024-002T","EPOCH":"2026-01-03T18:20:16.956096","MEAN_MOTION":15.30192216,"ECCENTRICITY":0.00010792,"INCLINATION":53.1603,"RA_OF_ASC_NODE":171.5945,"ARG_OF_PERICENTER":83.9245,"MEAN_ANOMALY":276.1879,"EPHEMERIS_TYPE":0,"CLASSIFICATION_TYPE":"U","NORAD_CAT_ID":58722,"ELEMENT_SET_NO":999,"REV_AT_EPOCH":11207,"BSTAR":-7.74649e-7,"MEAN_MOTION_DOT":-3.82e-6,"MEAN_MOTION_DDOT":0},{"OBJECT_NAME":"STARLINK-31033","OBJECT_ID":"2024-002U","EPOCH":"2026-01-03T18:06:36.272736","MEAN_MOTION":15.30191876,"ECCENTRICITY":9.695e-5,"INCLINATION":53.1603,"RA_OF_ASC_NODE":171.5332,"ARG_OF_PERICENTER":85.2191,"MEAN_ANOMALY":274.892,"EPHEMERIS_TYPE":0,"CLASSIFICATION_TYPE":"U","NORAD_CAT_ID":58723,"ELEMENT_SET_NO":999,"REV_AT_EPOCH":11207,"BSTAR":4.455677e-5,"MEAN_MOTION_DOT":9.61e-6,"MEAN_MOTION_DDOT":0},{"OBJECT_NAME":"STARLINK-30893","OBJECT_ID":"2024-002V","EPOCH":"2026-01-03T18:38:30.919200","MEAN_MOTION":15.3019813,"ECCENTRICITY":0.00011489,"INCLINATION":53.1595,"RA_OF_ASC_NODE":171.6809,"ARG_OF_PERICENTER":113.8515,"MEAN_ANOMALY":246.2607,"EPHEMERIS_TYPE":0,"CLASSIFICATION_TYPE":"U","NORAD_CAT_ID":58724,"ELEMENT_SET_NO":999,"REV_AT_EPOCH":11206,"BSTAR":-4.3683592e-5,"MEAN_MOTION_DOT":-1.653e-5,"MEAN_MOTION_DDOT":0},{"OBJECT_NAME":"STARLINK-30856","OBJECT_ID":"2024-002W","EPOCH":"2026-01-03T18:00:32.457888","MEAN_MOTION":15.30166535,"ECCENTRICITY":0.00010912,"INCLINATION":53.1592,"RA_OF_ASC_NODE":171.5069,"ARG_OF_PERICENTER":93.4606,"MEAN_ANOMALY":266.652,"EPHEMERIS_TYPE":0,"CLASSIFICATION_TYPE":"U","NORAD_CAT_ID":58725,"ELEMENT_SET_NO":999,"REV_AT_EPOCH":11207,"BSTAR":-0.00017926279,"MEAN_MOTION_DOT":-5.659e-5,"MEAN_MOTION_DDOT":0},{"OBJECT_NAME":"STARLINK-31115","OBJECT_ID":"2024-005B","EPOCH":"2026-01-04T06:08:23.116704","MEAN_MOTION":15.0253373,"ECCENTRICITY":0.00010681,"INCLINATION":43.0031,"RA_OF_ASC_NODE":211.3447,"ARG_OF_PERICENTER":274.191,"MEAN_ANOMALY":85.881,"EPHEMERIS_TYPE":0,"CLASSIFICATION_TYPE":"U","NORAD_CAT_ID":58729,"ELEMENT_SET_NO":999,"REV_AT_EPOCH":11072,"BSTAR":-1.1893299e-5,"MEAN_MOTION_DOT":-3.64e-6,"MEAN_MOTION_DDOT":0},{"OBJECT_NAME":"STARLINK-31180","OBJECT_ID":"2024-005E","EPOCH":"2026-01-03T22:48:06.067872","MEAN_MOTION":15.02537231,"ECCENTRICITY":0.0001108,"INCLINATION":43.0028,"RA_OF_ASC_NODE":213.3618,"ARG_OF_PERICENTER":264.645,"MEAN_ANOMALY":95.4266,"EPHEMERIS_TYPE":0,"CLASSIFICATION_TYPE":"U","NORAD_CAT_ID":58732,"ELEMENT_SET_NO":999,"REV_AT_EPOCH":11067,"BSTAR":0.00011193,"MEAN_MOTION_DOT":1.309e-5,"MEAN_MOTION_DDOT":0},{"OBJECT_NAME":"STARLINK-31164","OBJECT_ID":"2024-005F","EPOCH":"2026-01-04T06:03:45.331200","MEAN_MOTION":15.02536606,"ECCENTRICITY":0.00010629,"INCLINATION":43.0025,"RA_OF_ASC_NODE":212.1813,"ARG_OF_PERICENTER":262.4626,"MEAN_ANOMALY":97.6096,"EPHEMERIS_TYPE":0,"CLASSIFICATION_TYPE":"U","NORAD_CAT_ID":58733,"ELEMENT_SET_NO":999,"REV_AT_EPOCH":11071,"BSTAR":5.293266e-5,"MEAN_MOTION_DOT":5.12e-6,"MEAN_MOTION_DDOT":0},{"OBJECT_NAME":"STARLINK-31152","OBJECT_ID":"2024-005G","EPOCH":"2026-01-03T23:36:02.943360","MEAN_MOTION":15.0253109,"ECCENTRICITY":0.00011729,"INCLINATION":43.0019,"RA_OF_ASC_NODE":213.6026,"ARG_OF_PERICENTER":272.9577,"MEAN_ANOMALY":87.1131,"EPHEMERIS_TYPE":0,"CLASSIFICATION_TYPE":"U","NORAD_CAT_ID":58734,"ELEMENT_SET_NO":999,"REV_AT_EPOCH":11068,"BSTAR":7.4763209e-5,"MEAN_MOTION_DOT":8.06e-6,"MEAN_MOTION_DDOT":0},{"OBJECT_NAME":"STARLINK-31157","OBJECT_ID":"2024-005H","EPOCH":"2026-01-03T23:31:14.958336","MEAN_MOTION":15.02537747,"ECCENTRICITY":0.000158,"INCLINATION":43.0035,"RA_OF_ASC_NODE":213.572,"ARG_OF_PERICENTER":254.0103,"MEAN_ANOMALY":106.0566,"EPHEMERIS_TYPE":0,"CLASSIFICATION_TYPE":"U","NORAD_CAT_ID":58735,"ELEMENT_SET_NO":999,"REV_AT_EPOCH":11068,"BSTAR":5.1851e-5,"MEAN_MOTION_DOT":4.97e-6,"MEAN_MOTION_DDOT":0}]
